0 COSMOS 1275 DEB
1 13806U 81053HD  13280.74942692  .00008437  00000-0  15075-2 0  8016
2 13806 082.9080 023.4049 0022790 040.0838 076.2937 14.66660992604881
0 COSMOS 1275 DEB
1 13806U 81053HD  13282.37269527  .00015541  00000-0  27742-2 0  8025
2 13806 082.9076 022.0002 0022665 034.4994 007.5351 14.66709373605123
0 COSMOS 1275 DEB
1 13806U 81053HD  13282.79796920  .00012000  00000-0  21420-2 0  8038
2 13806 082.9076 021.6321 0022624 033.2478 092.9261 14.66716190605180
0 COSMOS 1275 DEB
1 13806U 81053HD  13283.72921296  .00019251  00000-0  34464-2 0  8046
2 13806 082.9081 020.8260 0022747 031.4739 328.8317 14.66729352605328
0 COSMOS 1275 DEB
1 13806U 81053HD  13286.33783749  .00009331  00000-0  16631-2 0  8050
2 13806 082.9082 018.5686 0022300 021.2951 064.9858 14.66784751605707
0 COSMOS 1275 DEB
1 13806U 81053HD  13288.31595719  .00016774  00000-0  29862-2 0  8068
2 13806 082.9083 016.8553 0022325 014.3696 070.9602 14.66832239605998
0 COSMOS 1275 DEB
1 13806U 81053HD  13290.15626738  .00014364  00000-0  25552-2 0  8075
2 13806 082.9089 015.2647 0022094 008.3470 069.1225 14.66876186606268
0 COSMOS 1275 DEB
1 13806U 81053HD  13292.26616640  .00011882  00000-0  21115-2 0  8084
2 13806 082.9084 013.4384 0021993 000.7555 051.9433 14.66926511606570
0 COSMOS 1275 DEB
1 13806U 81053HD  13294.45687242  .00014880  00000-0  26416-2 0  8094
2 13806 082.9075 011.5419 0021844 353.4927 101.2895 14.66968966606890
